GUOWANG GROUP 20 OBJECT*
1 68133U 26047E   26081.32743227 -.00000117  00000+0  21599-4 0  9996
2 68133  50.0037  18.9087 0001845 286.6306  73.4395 14.03282701  1347
GUOWANG GROUP 20 OBJECT*
1 68134U 26047F   26081.53908163 -.00000024  00000+0  80292-4 0  9994
2 68134  50.0098  18.0376 0001549 290.5042  69.5697 14.03853988  1363
GUOWANG GROUP 20 OBJECT*
1 68135U 26047G   26081.61110949  .00000032  00000+0  11611-3 0  9997
2 68135  50.0130  17.7516 0002378 303.3923  56.6754 14.03554926  1388
GUOWANG GROUP 20 OBJECT*
1 68136U 26047H   26081.53812320 -.00000095  00000+0  35643-4 0  9993
2 68136  50.0090  18.0296 0002883 313.7948  46.2718 14.04117144  1367
GUOWANG GROUP 20 OBJECT*
1 68137U 26047J   26081.53689084 -.00000132  00000+0  12583-4 0  9993
2 68137  50.0076  18.0273 0000963 332.2478  27.8375 14.04378980  1370
CZ-8A R/B               
1 68138U 26047K   26082.48519440  .00000100  00000+0  13613-3 0  9995
2 68138  49.9540  13.6249 0044767 185.7452 174.2947 14.12230441  1506
SHIYAN-30 03            
1 68139U 26048A   26082.35888418  .00002629  00000+0  25911-3 0  9999
2 68139  35.0003  62.1298 0003812 315.1927  44.8470 14.91694178  1547
SHIYAN-30 04            
1 68140U 26048B   26082.35963282  .00002536  00000+0  24996-3 0  9993
2 68140  34.9918  62.1352 0002316 314.4877  45.5638 14.91704041  1542
CZ-2D R/B               
1 68141U 26048C   26082.40205681  .00001648  00000+0  14839-3 0  9990
2 68141  35.1298  61.8015 0014895  85.2890 274.9519 14.95542996  1552
STARLINK-36604          
1 68142U 26049A   26078.57838178 -.00601426  12954-3 -10855-2 0  9998
2 68142  97.2797  98.1391 0000555  65.4234 294.7104 16.01563866   968
STARLINK-36995          
1 68143U 26049B   26078.26577997 -.00531426  10413-3 -90105-3 0  9991
2 68143  97.2800  97.7985 0000959  13.3742 346.7563 16.02629136   918
STARLINK-37020          
1 68144U 26049C   26078.51432062  .00978873  50884-3  15014-2 0  9993
2 68144  97.2794  98.0724 0000467 166.1555 193.9739 16.04472428   952
